[{"OBJECT_NAME":"TIANPING 2B","OBJECT_ID":"2022-032C","EPOCH":"2026-03-09T22:22:05.849760","MEAN_MOTION":15.01267566,"ECCENTRICITY":0.00208707,"INCLINATION":97.6053,"RA_OF_ASC_NODE":116.3222,"ARG_OF_PERICENTER":130.0797,"MEAN_ANOMALY":230.2261,"EPHEMERIS_TYPE":0,"CLASSIFICATION_TYPE":"U","NORAD_CAT_ID":52155,"ELEMENT_SET_NO":999,"REV_AT_EPOCH":21538,"BSTAR":0.00026542484,"MEAN_MOTION_DOT":3.368e-5,"MEAN_MOTION_DDOT":0},{"OBJECT_NAME":"STARLINK-6304","OBJECT_ID":"2023-078M","EPOCH":"2026-03-09T22:00:01.787040","MEAN_MOTION":14.98320396,"ECCENTRICITY":0.00029147,"INCLINATION":70.0005,"RA_OF_ASC_NODE":324.0422,"ARG_OF_PERICENTER":262.0648,"MEAN_ANOMALY":98.018,"EPHEMERIS_TYPE":0,"CLASSIFICATION_TYPE":"U","NORAD_CAT_ID":56778,"ELEMENT_SET_NO":999,"REV_AT_EPOCH":15320,"BSTAR":0.00013443317,"MEAN_MOTION_DOT":1.511e-5,"MEAN_MOTION_DDOT":0}]
